From: horizons@ssd.jpl.nasa.gov (Horizons Ephemeris System)
Subject: [Horizons] SMALL BODY #C(V30@399)_T(Borisov (C/2020 Q1)) (1/1)
Date: February 8, 2021 at 4:50:19 PM PST

Automated mail xmit by MAIL_REQUEST, PID= 12314 Mon Feb  8 16:50:19 2021
++++++++++++++++++++++++++++++++ (part 1 of 1)  +++++++++++++++++++++++++++++++
*******************************************************************************
JPL/HORIZONS                 Borisov (C/2020 Q1)           2021-Feb-08 16:50:19
Rec #:90004512 (+COV) Soln.date: 2021-Jan-30_21:12:49      # obs: 269 (69 days)

IAU76/J2000 helio. ecliptic osc. elements (au, days, deg., period=Julian yrs):

 EPOCH=  2459098.5 ! 2020-Sep-06.0000000 (TDB)    RMSW= n.a.
  EC= .9777644283255224   QR= 1.314950854372474   TP= 2459076.1541370279
  OM= 52.37837382654961   W= 9.881086169108942    IN= 142.923727414656
  A= 59.13726319354298    MA= .04842943163193199  ADIST= 116.9595755327135
  PER= 454.77862821307    N= .002167266           ANGMOM= .027741088
  DAN= 1.32467            DDN= 70.78617           L= 44.4664892
  B= 5.9382257            MOID= .33194801         TP= 2020-Aug-14.6541370279

Comet physical (GM= km^3/s^2; RAD= km):
  GM= n.a.                RAD= n.a.
  M1=  11.6     M2=  18.1     k1=  41.5   k2=  5.      PHCOF=  .030

COMET comments 
1: soln ref.= JPL#11, data arc: 2020-08-17 to 2020-10-25
2: k1=41.5, k2=5., phase coef.=0.03;
*******************************************************************************


*******************************************************************************
Ephemeris / MAIL_REQUEST Mon Feb  8 16:50:19 2021 Pasadena, USA  / Horizons
*******************************************************************************
Target body name: Borisov (C/2020 Q1)             {source: JPL#11}
Center body name: Earth (399)                     {source: DE431}
Center-site name: Heaven on Earth Observatory, Mayhill
*******************************************************************************
Start time      : A.D. 1990-Jan-01 00:00:00.0000 TDB
Stop  time      : A.D. 2020-Dec-31 00:00:00.0000 TDB
Step-size       : 120 steps
*******************************************************************************
Center geodetic : 254.471000,32.9035384,2.2360688 {E-lon(deg),Lat(deg),Alt(km)}
Center cylindric: 254.471000,5362.17112,3446.1964 {E-lon(deg),Dxy(km),Dz(km)}
Center pole/equ : High-precision EOP model        {East-longitude positive}
Center radii    : 6378.1 x 6378.1 x 6356.8 km     {Equator, meridian, pole}    
Small perturbers: Yes                             {source: SB431-N16}
Output units    : AU-D
Output type     : GEOMETRIC cartesian states
Output format   : 6 (LT, range, and range-rate)
EOP file        : eop.210208.p210502
EOP coverage    : DATA-BASED 1962-JAN-20 TO 2021-FEB-08. PREDICTS-> 2021-MAY-01
Reference frame : Ecliptic of J2000.0
*******************************************************************************
Initial IAU76/J2000 heliocentric ecliptic osculating elements (au, days, deg.):
 EPOCH=  2459098.5 ! 2020-Sep-06.0000000 (TDB)    RMSW= n.a.                  
  EC= .9777644283255224   QR= 1.314950854372474   TP= 2459076.1541370279      
  OM= 52.37837382654961   W= 9.881086169108942    IN= 142.923727414656        
 Equivalent ICRF heliocentric equatorial cartesian coordinates (au, au/d):
  X= 1.145227543985495E+00  Y= 3.876999633629274E-01  Z= 6.136173720260635E-01
 VX= 7.981773693784017E-03 VY=-1.857529572489022E-02 VZ= 4.768266326428410E-03
Comet physical (GM= km^3/s^2; RAD= km):                                        
  GM= n.a.                RAD= n.a.                                           
  M1=  11.6     M2=  18.1     k1=  41.5   k2=  5.      PHCOF=  .030           
*******************************************************************************
           JDTDB,            Calendar Date (TDB),                     LT,                     RG,                     RR,
**************************************************************************************************************************
$$SOE
2452421.300000000, A.D. 2002-May-26 19:12:00.0000,  1.970041459037125E-01,  3.411021047780075E+01,  6.282969717887183E-03,
2452515.650000000, A.D. 2002-Aug-29 03:36:00.0000,  2.030606762106712E-01,  3.515886619307952E+01,  9.562275629722561E-03,
2452610.000000000, A.D. 2002-Dec-01 12:00:00.0000,  2.020133214917223E-01,  3.497752234498747E+01, -1.426650836545829E-02,
2452704.350000000, A.D. 2003-Mar-05 20:24:00.0000,  1.920734026500285E-01,  3.325647874833064E+01, -1.520983303360300E-02,
2452798.700000000, A.D. 2003-Jun-08 04:48:00.0000,  1.904782287405002E-01,  3.298028294771384E+01,  8.990149469299857E-03,
2452893.050000000, A.D. 2003-Sep-10 13:12:00.0000,  1.965079552430598E-01,  3.402429772812566E+01,  6.661806768304210E-03,
2452987.400000000, A.D. 2003-Dec-13 21:36:00.0000,  1.936973054912705E-01,  3.353764880927615E+01, -1.647387356828888E-02,
2453081.750000000, A.D. 2004-Mar-17 06:00:00.0000,  1.838302122025367E-01,  3.182921456623587E+01, -1.260163270664744E-02,
2453176.100000000, A.D. 2004-Jun-19 14:24:00.0000,  1.839178044812338E-01,  3.184438069915599E+01,  1.076691898727897E-02,
2453270.450000000, A.D. 2004-Sep-21 22:48:00.0000,  1.895542085770414E-01,  3.282029381592818E+01,  3.981205443109362E-03,
2453364.800000000, A.D. 2004-Dec-25 07:12:00.0000,  1.850088777113102E-01,  3.203329417279825E+01, -1.884747338232953E-02,
2453459.150000000, A.D. 2005-Mar-29 15:36:00.0000,  1.755989287287905E-01,  3.040401201273654E+01, -9.057575325269232E-03,
2453553.500000000, A.D. 2005-Jul-02 00:00:00.0000,  1.772575276141703E-01,  3.069118950749953E+01,  1.186011401806883E-02,
2453647.850000000, A.D. 2005-Oct-04 08:24:00.0000,  1.821505283559162E-01,  3.153838632360391E+01,  4.631106467701789E-04,
2453742.200000000, A.D. 2006-Jan-06 16:48:00.0000,  1.759774543431084E-01,  3.046955169118541E+01, -1.977270004757623E-02,
2453836.550000000, A.D. 2006-Apr-11 01:12:00.0000,  1.673865022209451E-01,  2.898207444167145E+01, -5.941668722731284E-03,
2453930.900000000, A.D. 2006-Jul-14 09:36:00.0000,  1.704285600798706E-01,  2.950879043222890E+01,  1.250018301944131E-02,
2454025.250000000, A.D. 2006-Oct-16 18:00:00.0000,  1.742539395092194E-01,  3.017113434836309E+01, -3.072426081093108E-03,
2454119.600000000, A.D. 2007-Jan-19 02:24:00.0000,  1.666373620220432E-01,  2.885236483711109E+01, -2.052102106120244E-02,
2454213.950000000, A.D. 2007-Apr-23 10:48:00.0000,  1.591871390696661E-01,  2.756239872068055E+01, -1.989289128866287E-03,
2454308.300000000, A.D. 2007-Jul-26 19:12:00.0000,  1.633530346993592E-01,  2.828370118924299E+01,  1.182922250256501E-02,
2454402.650000000, A.D. 2007-Oct-29 03:36:00.0000,  1.658323732933233E-01,  2.871298535936997E+01, -6.570720451658880E-03,
2454497.000000000, A.D. 2008-Jan-31 12:00:00.0000,  1.570238289019112E-01,  2.718783317632419E+01, -2.006885720151051E-02,
2454591.350000000, A.D. 2008-May-04 20:24:00.0000,  1.509808591626952E-01,  2.614152540056608E+01,  1.114275837477617E-03,
2454685.700000000, A.D. 2008-Aug-07 04:48:00.0000,  1.559534787814095E-01,  2.700250779787708E+01,  1.113346450163920E-02,
2454780.050000000, A.D. 2008-Nov-09 13:12:00.0000,  1.568609815919232E-01,  2.715963703865431E+01, -1.039775518109449E-02,
2454874.400000000, A.D. 2009-Feb-11 21:36:00.0000,  1.471754572706938E-01,  2.548264048779764E+01, -1.887317163815719E-02,
2454968.750000000, A.D. 2009-May-17 06:00:00.0000,  1.427313388544410E-01,  2.471316523705472E+01,  4.487946789251515E-03,
2455063.100000000, A.D. 2009-Aug-19 14:24:00.0000,  1.481496180658265E-01,  2.565131120083654E+01,  8.945191985802065E-03,
2455157.450000000, A.D. 2009-Nov-21 22:48:00.0000,  1.473239933994906E-01,  2.550835872125701E+01, -1.333543153478424E-02,
2455251.800000000, A.D. 2010-Feb-24 07:12:00.0000,  1.371217336688405E-01,  2.374189220774641E+01, -1.713596778579192E-02,
2455346.150000000, A.D. 2010-May-29 15:36:00.0000,  1.343859304386167E-01,  2.326820256238031E+01,  7.063766284805269E-03,
2455440.500000000, A.D. 2010-Sep-01 00:00:00.0000,  1.398571358027743E-01,  2.421551240544270E+01,  6.798493640632174E-03,
2455534.850000000, A.D. 2010-Dec-04 08:24:00.0000,  1.372092360162619E-01,  2.375704276954882E+01, -1.661357702486151E-02,
2455629.200000000, A.D. 2011-Mar-08 16:48:00.0000,  1.268846022221209E-01,  2.196938784376622E+01, -1.423728050697698E-02,
2455723.550000000, A.D. 2011-Jun-11 01:12:00.0000,  1.258694968709357E-01,  2.179362780060961E+01,  9.058461405739448E-03,
2455817.900000000, A.D. 2011-Sep-13 09:36:00.0000,  1.309886073804740E-01,  2.267997430940246E+01,  3.567952224231395E-03,
2455912.250000000, A.D. 2011-Dec-16 18:00:00.0000,  1.265052402326959E-01,  2.190370335145667E+01, -1.858541875497921E-02,
2456006.600000000, A.D. 2012-Mar-20 02:24:00.0000,  1.164665490328035E-01,  2.016555785112117E+01, -1.146219110719572E-02,
2456100.950000000, A.D. 2012-Jun-22 10:48:00.0000,  1.170850183755373E-01,  2.027264249828909E+01,  1.054607602766542E-02,
2456195.300000000, A.D. 2012-Sep-24 19:12:00.0000,  1.214451274843385E-01,  2.102757198835209E+01,  1.347806351187904E-04,
2456289.650000000, A.D. 2012-Dec-28 03:36:00.0000,  1.151950458014566E-01,  1.994540389118550E+01, -2.050102694555940E-02,
2456384.000000000, A.D. 2013-Apr-01 12:00:00.0000,  1.058453313816638E-01,  1.832655102236142E+01, -7.543635394001463E-03,
2456478.350000000, A.D. 2013-Jul-04 20:24:00.0000,  1.079068517356741E-01,  1.868349220680701E+01,  1.064608849909024E-02,
2456572.700000000, A.D. 2013-Oct-07 04:48:00.0000,  1.111167598518966E-01,  1.923927056850842E+01, -3.554146093074755E-03,
2456667.050000000, A.D. 2014-Jan-09 13:12:00.0000,  1.032484258111334E-01,  1.787691076126225E+01, -2.123032518480554E-02,
2456761.400000000, A.D. 2014-Apr-13 21:36:00.0000,  9.496688218840971E-02,  1.644300593273006E+01, -4.170100895792821E-03,
2456855.750000000, A.D. 2014-Jul-17 06:00:00.0000,  9.817901406183518E-02,  1.699916932605553E+01,  1.048513686013809E-02,
